NORAD_CAT_ID,OBJECT_NAME,OBJECT_TYPE,EPOCH,MEAN_MOTION,ECCENTRICITY,INCLINATION,RA_OF_ASC_NODE,ARG_OF_PERICENTER,MEAN_ANOMALY,BSTAR,MEAN_MOTION_DOT,MEAN_MOTION_DDOT,TLE_LINE0,TLE_LINE1,TLE_LINE2,SEMIMAJOR_AXIS,PERIOD,APOGEE,PERIGEE,DECAYED
51886.0,STARLINK-3565,PAYLOAD,2023-04-27 02:48:22,15.08815082,0.0001856,53.2197,21.8526,97.7862,262.334,0.00024346,3.586e-05,0.0,0 STARLINK-3565,1 51886U 22022AL  23117.11692634  .00003586  00000-0  24346-3 0  9996,2 51886  53.2197  21.8526 0001856  97.7862 262.3340 15.08815082 65100,6917.957,95.439,541.106,538.538,0.0
51886.0,STARLINK-3565,PAYLOAD,2023-04-27 23:28:22,15.08830901,0.0001188,53.2177,17.9913,84.516,275.5968,0.00047422,7.265e-05,0.0,0 STARLINK-3565,1 51886U 22022AL  23117.97803434  .00007265  00000-0  47422-3 0  9990,2 51886  53.2177  17.9913 0001188  84.5160 275.5968 15.08830901 65230,6917.908,95.438,540.595,538.951,0.0
51886.0,STARLINK-3565,PAYLOAD,2023-04-28 10:36:05,15.08824783,0.0001513,53.2183,15.9093,80.3571,279.7592,0.00036236,5.481e-05,0.0,0 STARLINK-3565,1 51886U 22022AL  23118.44172580  .00005481  00000-0  36236-3 0  9993,2 51886  53.2183  15.9093 0001513  80.3571 279.7592 15.08824783 65304,6917.927,95.439,540.839,538.745,0.0
51886.0,STARLINK-3565,PAYLOAD,2023-04-28 16:57:39,15.0880873,0.0001214,53.2187,14.7207,89.6988,270.4143,0.00025434,3.759e-05,0.0,0 STARLINK-3565,1 51886U 22022AL  23118.70670140  .00003759  00000-0  25434-3 0  9991,2 51886  53.2187  14.7207 0001214  89.6988 270.4143 15.08808730 65342,6917.976,95.44,540.681,539.001,0.0
51886.0,STARLINK-3565,PAYLOAD,2023-04-28 23:19:10,15.08843785,7.25e-05,53.218,13.5323,87.4709,272.6366,-0.00010106,-1.896e-05,0.0,0 STARLINK-3565,1 51886U 22022AL  23118.97164653 -.00001896  00000-0 -10106-3 0  9999,2 51886  53.2180  13.5323 0000725  87.4709 272.6366 15.08843785 65388,6917.869,95.437,540.235,539.232,0.0
51886.0,STARLINK-3565,PAYLOAD,2023-04-30 02:20:42,15.08858071,0.0001322,53.2181,8.4739,106.1537,253.9601,-6.2455e-05,-1.282e-05,0.0,0 STARLINK-3565,1 51886U 22022AL  23120.09771036 -.00001282  00000-0 -62455-4 0  9998,2 51886  53.2181   8.4739 0001322 106.1537 253.9601 15.08858071 65552,6917.825,95.436,540.605,538.776,0.0
51886.0,STARLINK-3565,PAYLOAD,2023-04-30 21:25:20,15.08829496,0.0001182,53.2179,4.9034,107.1889,252.9233,0.00013571,1.872e-05,0.0,0 STARLINK-3565,1 51886U 22022AL  23120.89260254  .00001872  00000-0  13571-3 0  9998,2 51886  53.2179   4.9034 0001182 107.1889 252.9233 15.08829496 65675,6917.912,95.438,540.595,538.96,0.0
51886.0,STARLINK-3565,PAYLOAD,2023-04-30 23:00:43,15.08837512,0.0001386,53.218,4.6055,101.815,258.2998,3.3364e-05,2.43e-06,0.0,0 STARLINK-3565,1 51886U 22022AL  23120.95884104  .00000243  00000-0  33364-4 0  9995,2 51886  53.2180   4.6055 0001386 101.8150 258.2998 15.08837512 65681,6917.888,95.438,540.712,538.794,0.0
51886.0,STARLINK-3565,PAYLOAD,2023-05-01 21:16:07,15.08838473,0.0001284,53.2186,0.4409,94.0968,266.0171,-2.9176e-06,-3.34e-06,0.0,0 STARLINK-3565,1 51886U 22022AL  23121.88620297 -.00000334  00000-0 -29176-5 0  9999,2 51886  53.2186   0.4409 0001284  94.0968 266.0171 15.08838473 65824,6917.885,95.438,540.638,538.862,0.0
51886.0,STARLINK-3565,PAYLOAD,2023-05-01 22:51:31,15.08838924,0.0001277,53.2185,0.1436,92.7044,267.4095,-3.8105e-07,-2.94e-06,0.0,0 STARLINK-3565,1 51886U 22022AL  23121.95244263 -.00000294  00000-0 -38105-6 0  9990,2 51886  53.2185   0.1436 0001277  92.7044 267.4095 15.08838924 65834,6917.884,95.438,540.632,538.865,0.0
51886.0,STARLINK-3565,PAYLOAD,2023-05-02 02:02:17,15.08844342,0.0001294,53.2188,359.5526,85.01,275.104,1.9045e-05,1.5e-07,0.0,0 STARLINK-3565,1 51886U 22022AL  23122.08491915  .00000015  00000-0  19045-4 0  9992,2 51886  53.2188 359.5526 0001294  85.0100 275.1040 15.08844342 65854,6917.867,95.437,540.627,538.837,0.0
51886.0,STARLINK-3565,PAYLOAD,2023-05-02 21:06:54,15.08843485,0.0001288,53.2187,355.9854,83.4222,276.6917,9.6948e-05,1.256e-05,0.0,0 STARLINK-3565,1 51886U 22022AL  23122.87979691  .00001256  00000-0  96948-4 0  9996,2 51886  53.2187 355.9854 0001288  83.4222 276.6917 15.08843485 65976,6917.87,95.437,540.626,538.844,0.0
51886.0,STARLINK-3565,PAYLOAD,2023-05-03 01:53:03,15.08849549,0.0001304,53.2189,355.0933,85.7784,274.3357,0.000142,1.973e-05,0.0,0 STARLINK-3565,1 51886U 22022AL  23123.07851091  .00001973  00000-0  14200-3 0  9998,2 51886  53.2189 355.0933 0001304  85.7784 274.3357 15.08849549 66009,6917.851,95.437,540.618,538.814,0.0
51886.0,STARLINK-3565,PAYLOAD,2023-05-03 08:14:36,15.08836308,0.0001511,53.2188,353.9039,78.3331,281.7831,4.4731e-05,4.24e-06,0.0,0 STARLINK-3565,1 51886U 22022AL  23123.34348319  .00000424  00000-0  44731-4 0  9995,2 51886  53.2188 353.9039 0001511  78.3331 281.7831 15.08836308 66040,6917.892,95.438,540.802,538.711,0.0
51886.0,STARLINK-3565,PAYLOAD,2023-05-03 20:57:42,15.0883194,0.0001337,53.2186,351.5265,87.0515,273.063,-5.2173e-05,-1.118e-05,0.0,0 STARLINK-3565,1 51886U 22022AL  23123.87340982 -.00001118  00000-0 -52173-4 0  9993,2 51886  53.2186 351.5265 0001337  87.0515 273.0630 15.08831940 66127,6917.905,95.438,540.695,538.845,0.0
51886.0,STARLINK-3565,PAYLOAD,2023-05-04 08:05:24,15.08832682,0.0001276,53.2184,349.4466,97.1642,262.9495,-5.2508e-05,-1.123e-05,0.0,0 STARLINK-3565,1 51886U 22022AL  23124.33709117 -.00001123  00000-0 -52508-4 0  9992,2 51886  53.2184 349.4466 0001276  97.1642 262.9495 15.08832682 66196,6917.903,95.438,540.65,538.885,0.0
51886.0,STARLINK-3565,PAYLOAD,2023-05-04 20:48:29,15.08842431,0.0001199,53.2185,347.0682,95.9089,264.204,-2.2399e-05,-6.44e-06,0.0,0 STARLINK-3565,1 51886U 22022AL  23124.86700443 -.00000644  00000-0 -22399-4 0  9995,2 51886  53.2185 347.0682 0001199  95.9089 264.2040 15.08842431 66279,6917.873,95.437,540.567,538.909,0.0
51886.0,STARLINK-3565,PAYLOAD,2023-05-04 22:23:52,15.08844139,0.0001195,53.2184,346.7705,92.9943,267.1186,-4.3273e-06,-3.57e-06,0.0,0 STARLINK-3565,1 51886U 22022AL  23124.93324283 -.00000357  00000-0 -43273-5 0  9993,2 51886  53.2184 346.7705 0001195  92.9943 267.1186 15.08844139 66283,6917.868,95.437,540.559,538.906,0.0
51886.0,STARLINK-3565,PAYLOAD,2023-05-05 20:39:16,15.08832693,0.0001471,53.2187,342.6075,88.5597,271.5564,9.1246e-05,1.164e-05,0.0,0 STARLINK-3565,1 51886U 22022AL  23125.86061019  .00001164  00000-0  91246-4 0  9998,2 51886  53.2187 342.6075 0001471  88.5597 271.5564 15.08832693 66421,6917.903,95.438,540.785,538.75,0.0
51886.0,STARLINK-3565,PAYLOAD,2023-05-06 01:25:25,15.08840298,0.0001268,53.2171,341.7124,85.4368,274.6769,9.3425e-05,1.199e-05,0.0,0 STARLINK-3565,1 51886U 22022AL  23126.05932623  .00001199  00000-0  93425-4 0  9997,2 51886  53.2171 341.7124 0001268  85.4368 274.6769 15.08840298 66459,6917.879,95.438,540.622,538.867,0.0
51886.0,STARLINK-3565,PAYLOAD,2023-05-06 23:40:48,15.08853513,0.0001219,53.217,337.5469,95.2924,264.8207,0.00010729,1.421e-05,0.0,0 STARLINK-3565,1 51886U 22022AL  23126.98667597  .00001421  00000-0  10729-3 0  9997,2 51886  53.2170 337.5469 0001219  95.2924 264.8207 15.08853513 66593,6917.839,95.437,540.547,538.861,0.0
51886.0,STARLINK-3565,PAYLOAD,2023-05-07 20:20:50,15.08841454,0.0001118,53.2169,333.6831,84.3014,275.8106,2.0814e-05,4.3e-07,0.0,0 STARLINK-3565,1 51886U 22022AL  23127.84780720  .00000043  00000-0  20814-4 0  9993,2 51886  53.2169 333.6831 0001118  84.3014 275.8106 15.08841454 66724,6917.876,95.437,540.514,538.968,0.0
51886.0,STARLINK-3565,PAYLOAD,2023-05-08 20:11:37,15.08850154,0.0001212,53.2168,329.224,76.7872,283.3255,-2.3388e-05,-6.6e-06,0.0,0 STARLINK-3565,1 51886U 22022AL  23128.84140243 -.00000660  00000-0 -23388-4 0  9990,2 51886  53.2168 329.2240 0001212  76.7872 283.3255 15.08850154 66872,6917.849,95.437,540.553,538.876,0.0
51886.0,STARLINK-3565,PAYLOAD,2023-05-09 05:43:56,15.08846779,0.0001031,53.2169,327.44,84.741,275.37,-6.478e-05,-1.319e-05,0.0,0 STARLINK-3565,1 51886U 22022AL  23129.23884344 -.00001319  00000-0 -64780-4 0  9994,2 51886  53.2169 327.4400 0001031  84.7410 275.3700 15.08846779 66938,6917.86,95.437,540.438,539.011,0.0
51886.0,STARLINK-3565,PAYLOAD,2023-05-10 05:34:44,15.08825933,7.48e-05,53.2182,322.9789,109.7634,250.3438,-6.4829e-05,-1.319e-05,0.0,0 STARLINK-3565,1 51886U 22022AL  23130.23245807 -.00001319  00000-0 -64829-4 0  9995,2 51886  53.2182 322.9789 0000748 109.7634 250.3438 15.08825933 67080,6917.923,95.438,540.306,539.271,0.0
51886.0,STARLINK-3565,PAYLOAD,2023-05-10 19:53:11,15.08842071,0.0001057,53.2166,320.3028,86.7524,273.3589,5.6421e-05,6.1e-06,0.0,0 STARLINK-3565,1 51886U 22022AL  23130.82861078  .00000610  00000-0  56421-4 0  9994,2 51886  53.2166 320.3028 0001057  86.7524 273.3589 15.08842071 67170,6917.874,95.437,540.47,539.008,0.0
51886.0,STARLINK-3565,PAYLOAD,2023-05-11 05:25:30,15.08843604,0.0001069,53.2164,318.5185,82.2729,277.8385,0.00010077,1.316e-05,0.0,0 STARLINK-3565,1 51886U 22022AL  23131.22604952  .00001316  00000-0  10077-3 0  9995,2 51886  53.2164 318.5185 0001069  82.2729 277.8385 15.08843604 67235,6917.869,95.437,540.474,538.995,0.0
51886.0,STARLINK-3565,PAYLOAD,2023-05-11 16:33:12,15.08836566,0.0001138,53.2165,316.4367,86.716,273.3963,3.9079e-05,3.34e-06,0.0,0 STARLINK-3565,1 51886U 22022AL  23131.68973353  .00000334  00000-0  39079-4 0  9992,2 51886  53.2165 316.4367 0001138  86.7160 273.3963 15.08836566 67300,6917.891,95.438,540.543,538.969,0.0
51886.0,STARLINK-3565,PAYLOAD,2023-05-12 05:16:18,15.08839936,0.0001135,53.2157,314.0582,87.4157,272.6965,0.00016442,2.33e-05,0.0,0 STARLINK-3565,1 51886U 22022AL  23132.21965293  .00002330  00000-0  16442-3 0  9992,2 51886  53.2157 314.0582 0001135  87.4157 272.6965 15.08839936 67381,6917.881,95.438,540.531,538.96,0.0
51886.0,STARLINK-3565,PAYLOAD,2023-05-12 17:59:23,15.08840647,0.0001121,53.2154,311.6796,87.1242,272.9878,0.00013371,1.841e-05,0.0,0 STARLINK-3565,1 51886U 22022AL  23132.74957363  .00001841  00000-0  13371-3 0  9993,2 51886  53.2154 311.6796 0001121  87.1242 272.9878 15.08840647 67461,6917.878,95.438,540.519,538.968,0.0
